start=new Date('2022-03-05T00:00:00.000Z').valueOf();
sats=[{"LAUNCH_DATE":"2021-12-18","EPOCH":"2022-03-04T22:00:00.999936","PERIAPSIS":"347.270","SITE":"AFWTR","CLASSIFICATION_TYPE":"U","PERIOD":"91.530","OBJECT_NAME":"STARLINK-3260","MEAN_ANOMALY":"328.4329","CENTER_NAME":"EARTH","OBJECT_ID":"2021-125BB","ECCENTRICITY":"0.00034940","DECAY_DATE":null,"EPHEMERIS_TYPE":"0","RA_OF_ASC_NODE":"343.8422","TLE_LINE2":"2 50205  53.2140 343.8422 0003494   9.9484 328.4329 15.73248953  3695","NORAD_CAT_ID":"50205","SEMIMAJOR_AXIS":"6727.756","INCLINATION":"53.2140","COUNTRY_CODE":"US","MEAN_MOTION_DDOT":"0.0000000000000","ARG_OF_PERICENTER":"9.9484","BSTAR":"-0.00012626000000","APOAPSIS":"351.971","REF_FRAME":"TEME","MEAN_ELEMENT_THEORY":"SGP4","FILE":"3344863","REV_AT_EPOCH":"369","RCS_SIZE":"LARGE","TLE_LINE1":"1 50205U 21125BB  22063.91667824 -.00018349  00000-0 -12626-3 0  9996","TIME_SYSTEM":"UTC","OBJECT_TYPE":"PAYLOAD","MEAN_MOTION":"15.73248953","GP_ID":"197906116","ELEMENT_SET_NO":"999","MEAN_MOTION_DOT":"-0.00018349"},{"ARG_OF_PERICENTER":"307.5004","COUNTRY_CODE":"US","INCLINATION":"53.2178","MEAN_MOTION_DDOT":"0.0000000000000","SEMIMAJOR_AXIS":"6738.213","REV_AT_EPOCH":"369","FILE":"3344863","BSTAR":"-0.00649410000000","MEAN_ELEMENT_THEORY":"SGP4","APOAPSIS":"363.398","REF_FRAME":"TEME","OBJECT_TYPE":"PAYLOAD","MEAN_MOTION":"15.69588046","TLE_LINE1":"1 50206U 21125BC  22063.91667824 -.00719969  00000-0 -64941-2 0  9999","TIME_SYSTEM":"UTC","RCS_SIZE":"LARGE","MEAN_MOTION_DOT":"-0.00719969","ELEMENT_SET_NO":"999","GP_ID":"197907367","SITE":"AFWTR","CLASSIFICATION_TYPE":"U","PERIAPSIS":"356.758","EPOCH":"2022-03-04T22:00:00.999936","LAUNCH_DATE":"2021-12-18","MEAN_ANOMALY":"51.6765","OBJECT_ID":"2021-125BC","CENTER_NAME":"EARTH","OBJECT_NAME":"STARLINK-3258","ECCENTRICITY":"0.00049270","PERIOD":"91.744","EPHEMERIS_TYPE":"0","DECAY_DATE":null,"NORAD_CAT_ID":"50206","TLE_LINE2":"2 50206  53.2178 347.5267 0004927 307.5004  51.6765 15.69588046  3696","RA_OF_ASC_NODE":"347.5267"},{"GP_ID":"197907610","ELEMENT_SET_NO":"999","MEAN_MOTION_DOT":"-0.00721032","RCS_SIZE":"LARGE","TLE_LINE1":"1 50207U 21125BD  22063.91667824 -.00721032  00000-0 -65342-2 0  9990","TIME_SYSTEM":"UTC","MEAN_MOTION":"15.69468909","OBJECT_TYPE":"PAYLOAD","BSTAR":"-0.00653420000000","REF_FRAME":"TEME","APOAPSIS":"364.251","MEAN_ELEMENT_THEORY":"SGP4","FILE":"3344863","REV_AT_EPOCH":"369","SEMIMAJOR_AXIS":"6738.554","COUNTRY_CODE":"US","INCLINATION":"53.2178","MEAN_MOTION_DDOT":"0.0000000000000","ARG_OF_PERICENTER":"306.8484","RA_OF_ASC_NODE":"347.5307","TLE_LINE2":"2 50207  53.2178 347.5307 0005687 306.8484  49.4176 15.69468909  3696","NORAD_CAT_ID":"50207","DECAY_DATE":null,"EPHEMERIS_TYPE":"0","PERIOD":"91.751","OBJECT_NAME":"STARLINK-3262","MEAN_ANOMALY":"49.4176","OBJECT_ID":"2021-125BD","CENTER_NAME":"EARTH","ECCENTRICITY":"0.00056870","LAUNCH_DATE":"2021-12-18","EPOCH":"2022-03-04T22:00:00.999936","PERIAPSIS":"356.587","SITE":"AFWTR","CLASSIFICATION_TYPE":"U"},{"DECAY_DATE":null,"EPHEMERIS_TYPE":"0","RA_OF_ASC_NODE":"277.2368","TLE_LINE2":"2 50803  53.2174 277.2368 0001773  35.8931 247.7834 15.61681613  3693","NORAD_CAT_ID":"50803","LAUNCH_DATE":"2022-01-06","EPOCH":"2022-03-04T22:00:00.999936","PERIAPSIS":"381.603","SITE":"AFETR","CLASSIFICATION_TYPE":"U","PERIOD":"92.208","OBJECT_NAME":"STARLINK-3321","MEAN_ANOMALY":"247.7834","CENTER_NAME":"EARTH","OBJECT_ID":"2022-001A","ECCENTRICITY":"0.00017730","RCS_SIZE":"LARGE","TLE_LINE1":"1 50803U 22001A   22063.91667824 -.00717185  00000-0 -89098-2 0  9994","TIME_SYSTEM":"UTC","MEAN_MOTION":"15.61681613","OBJECT_TYPE":"PAYLOAD","GP_ID":"197907428","ELEMENT_SET_NO":"999","MEAN_MOTION_DOT":"-0.00717185","SEMIMAJOR_AXIS":"6760.936","INCLINATION":"53.2174","COUNTRY_CODE":"US","MEAN_MOTION_DDOT":"0.0000000000000","ARG_OF_PERICENTER":"35.8931","BSTAR":"-0.00890980000000","REF_FRAME":"TEME","APOAPSIS":"384.000","MEAN_ELEMENT_THEORY":"SGP4","FILE":"3344863","REV_AT_EPOCH":"369"},{"ARG_OF_PERICENTER":"29.2166","MEAN_MOTION_DDOT":"0.0000000000000","INCLINATION":"53.2145","COUNTRY_CODE":"US","SEMIMAJOR_AXIS":"6727.800","REV_AT_EPOCH":"369","FILE":"3344863","APOAPSIS":"351.041","MEAN_ELEMENT_THEORY":"SGP4","REF_FRAME":"TEME","BSTAR":"-0.00026693000000","OBJECT_TYPE":"PAYLOAD","MEAN_MOTION":"15.73233402","TIME_SYSTEM":"UTC","TLE_LINE1":"1 50804U 22001B   22063.91667824 -.00037971  00000-0 -26693-3 0  9996","RCS_SIZE":"LARGE","MEAN_MOTION_DOT":"-0.00037971","ELEMENT_SET_NO":"999","GP_ID":"197907671","CLASSIFICATION_TYPE":"U","SITE":"AFETR","PERIAPSIS":"348.289","EPOCH":"2022-03-04T22:00:00.999936","LAUNCH_DATE":"2022-01-06","ECCENTRICITY":"0.00020450","MEAN_ANOMALY":"51.9244","OBJECT_NAME":"STARLINK-3323","CENTER_NAME":"EARTH","OBJECT_ID":"2022-001B","PERIOD":"91.531","EPHEMERIS_TYPE":"0","DECAY_DATE":null,"NORAD_CAT_ID":"50804","TLE_LINE2":"2 50804  53.2145 276.8933 0002045  29.2166  51.9244 15.73233402  3697","RA_OF_ASC_NODE":"276.8933"},{"NORAD_CAT_ID":"50805","TLE_LINE2":"2 50805  53.2146 276.8922 0001756  28.6747  53.1589 15.73234322  3691","RA_OF_ASC_NODE":"276.8922","EPHEMERIS_TYPE":"0","DECAY_DATE":null,"OBJECT_ID":"2022-001C","MEAN_ANOMALY":"53.1589","OBJECT_NAME":"STARLINK-3333","CENTER_NAME":"EARTH","ECCENTRICITY":"0.00017560","PERIOD":"91.531","SITE":"AFETR","CLASSIFICATION_TYPE":"U","PERIAPSIS":"348.481","EPOCH":"2022-03-04T22:00:00.999936","LAUNCH_DATE":"2022-01-06","MEAN_MOTION_DOT":"-0.00026443","ELEMENT_SET_NO":"999","GP_ID":"197906427","MEAN_MOTION":"15.73234322","OBJECT_TYPE":"PAYLOAD","TLE_LINE1":"1 50805U 22001C   22063.91667824 -.00026443  00000-0 -18429-3 0  9997","TIME_SYSTEM":"UTC","RCS_SIZE":"LARGE","REV_AT_EPOCH":"369","FILE":"3344863","BSTAR":"-0.00018429000000","APOAPSIS":"350.844","MEAN_ELEMENT_THEORY":"SGP4","REF_FRAME":"TEME","ARG_OF_PERICENTER":"28.6747","COUNTRY_CODE":"US","INCLINATION":"53.2146","MEAN_MOTION_DDOT":"0.0000000000000","SEMIMAJOR_AXIS":"6727.797"},{"ECCENTRICITY":"0.00017180","MEAN_ANOMALY":"47.6484","CENTER_NAME":"EARTH","OBJECT_NAME":"STARLINK-3335","OBJECT_ID":"2022-001D","PERIOD":"91.530","CLASSIFICATION_TYPE":"U","SITE":"AFETR","PERIAPSIS":"348.459","EPOCH":"2022-03-04T22:00:00.999936","LAUNCH_DATE":"2022-01-06","NORAD_CAT_ID":"50806","TLE_LINE2":"2 50806  53.2132 276.8905 0001718  34.7712  47.6484 15.73250910 10282","RA_OF_ASC_NODE":"276.8905","EPHEMERIS_TYPE":"0","DECAY_DATE":null,"REV_AT_EPOCH":"1028","FILE":"3344793","REF_FRAME":"TEME","APOAPSIS":"350.771","MEAN_ELEMENT_THEORY":"SGP4","BSTAR":"-0.00023468000000","ARG_OF_PERICENTER":"34.7712","MEAN_MOTION_DDOT":"0.0000000000000","INCLINATION":"53.2132","COUNTRY_CODE":"US","SEMIMAJOR_AXIS":"6727.750","MEAN_MOTION_DOT":"-0.00033499","ELEMENT_SET_NO":"999","GP_ID":"197882793","MEAN_MOTION":"15.73250910","OBJECT_TYPE":"PAYLOAD","TLE_LINE1":"1 50806U 22001D   22063.91667824 -.00033499  00000-0 -23468-3 0  9996","TIME_SYSTEM":"UTC","RCS_SIZE":"LARGE"},{"NORAD_CAT_ID":"50807","RA_OF_ASC_NODE":"276.8832","TLE_LINE2":"2 50807  53.2141 276.8832 0001477  32.3282  52.5883 15.73215825  3691","EPHEMERIS_TYPE":"0","DECAY_DATE":null,"OBJECT_NAME":"STARLINK-3353","MEAN_ANOMALY":"52.5883","OBJECT_ID":"2022-001E","CENTER_NAME":"EARTH","ECCENTRICITY":"0.00014770","PERIOD":"91.532","PERIAPSIS":"348.721","SITE":"AFETR","CLASSIFICATION_TYPE":"U","LAUNCH_DATE":"2022-01-06","EPOCH":"2022-03-04T22:00:00.999936","ELEMENT_SET_NO":"999","MEAN_MOTION_DOT":"0.00046392","GP_ID":"197906929","TLE_LINE1":"1 50807U 22001E   22063.91667824  .00046392  00000-0  33291-3 0  9996","TIME_SYSTEM":"UTC","OBJECT_TYPE":"PAYLOAD","MEAN_MOTION":"15.73215825","RCS_SIZE":"LARGE","REV_AT_EPOCH":"369","BSTAR":"0.00033291000000","MEAN_ELEMENT_THEORY":"SGP4","APOAPSIS":"350.709","REF_FRAME":"TEME","FILE":"3344863","ARG_OF_PERICENTER":"32.3282","SEMIMAJOR_AXIS":"6727.850","INCLINATION":"53.2141","COUNTRY_CODE":"US","MEAN_MOTION_DDOT":"0.0000000000000"},{"OBJECT_TYPE":"PAYLOAD","MEAN_MOTION":"15.73199397","TLE_LINE1":"1 50808U 22001F   22063.91667824  .00042381  00000-0  30485-3 0  9993","TIME_SYSTEM":"UTC","RCS_SIZE":"LARGE","MEAN_MOTION_DOT":"0.00042381","ELEMENT_SET_NO":"999","GP_ID":"197907172","ARG_OF_PERICENTER":"27.6646","MEAN_MOTION_DDOT":"0.0000000000000","INCLINATION":"53.2138","COUNTRY_CODE":"US","SEMIMAJOR_AXIS":"6727.897","REV_AT_EPOCH":"369","FILE":"3344863","APOAPSIS":"351.288","REF_FRAME":"TEME","MEAN_ELEMENT_THEORY":"SGP4","BSTAR":"0.00030485000000","EPHEMERIS_TYPE":"0","DECAY_DATE":null,"NORAD_CAT_ID":"50808","TLE_LINE2":"2 50808  53.2138 276.8878 0002269  27.6646  56.0333 15.73199397  3693","RA_OF_ASC_NODE":"276.8878","CLASSIFICATION_TYPE":"U","SITE":"AFETR","PERIAPSIS":"348.235","EPOCH":"2022-03-04T22:00:00.999936","LAUNCH_DATE":"2022-01-06","ECCENTRICITY":"0.00022690","OBJECT_NAME":"STARLINK-3355","MEAN_ANOMALY":"56.0333","OBJECT_ID":"2022-001F","CENTER_NAME":"EARTH","PERIOD":"91.533"},{"GP_ID":"197905928","ELEMENT_SET_NO":"999","MEAN_MOTION_DOT":"0.00048031","RCS_SIZE":"LARGE","TLE_LINE1":"1 50809U 22001G   22063.91667824  .00048031  00000-0  34512-3 0  9997","TIME_SYSTEM":"UTC","OBJECT_TYPE":"PAYLOAD","MEAN_MOTION":"15.73169484","APOAPSIS":"351.171","MEAN_ELEMENT_THEORY":"SGP4","REF_FRAME":"TEME","BSTAR":"0.00034512000000","FILE":"3344863","REV_AT_EPOCH":"369","SEMIMAJOR_AXIS":"6727.982","MEAN_MOTION_DDOT":"0.0000000000000","INCLINATION":"53.2128","COUNTRY_CODE":"US","ARG_OF_PERICENTER":"44.6585","RA_OF_ASC_NODE":"276.8884","TLE_LINE2":"2 50809  53.2128 276.8884 0001967  44.6585  38.4380 15.73169484  3695","NORAD_CAT_ID":"50809","DECAY_DATE":null,"EPHEMERIS_TYPE":"0","PERIOD":"91.535","ECCENTRICITY":"0.00019670","OBJECT_ID":"2022-001G","MEAN_ANOMALY":"38.4380","CENTER_NAME":"EARTH","OBJECT_NAME":"STARLINK-3232","LAUNCH_DATE":"2022-01-06","EPOCH":"2022-03-04T22:00:00.999936","PERIAPSIS":"348.524","CLASSIFICATION_TYPE":"U","SITE":"AFETR"}];
